ONEWEB-0578             
1 56067U 23043X   25192.62115729  .00000044  00000+0  73895-4 0  9991
2 56067  87.9275 311.9109 0001839  99.4545 260.6796 13.21826761113249
ONEWEB-0579             
1 56068U 23043Y   25192.61168948  .00001433  00000+0  34372-2 0  9990
2 56068  87.9271 311.8984 0002648 103.6636 256.4793 13.21816758113250
ONEWEB-0581             
1 56069U 23043Z   25192.53189326  .00000052  00000+0  10258-3 0  9999
2 56069  87.9053 296.6897 0002048 114.2368 245.8977 13.16594463114130
ONEWEB-0609             
1 56070U 23043AA  25192.59904981  .00000175  00000+0  42997-3 0  9990
2 56070  87.9073 327.1230 0001942  95.2662 264.8690 13.15549221111650
ONEWEB-0613             
1 56071U 23043AB  25192.36612616  .00000175  00000+0  42976-3 0  9994
2 56071  87.9078 327.1811 0002119  99.5454 260.5915 13.15548545111622
ONEWEB-0630             
1 56072U 23043AC  25192.36136406  .00000147  00000+0  35637-3 0  9998
2 56072  87.9074 327.1588 0002189  96.2233 263.9147 13.15548949111617
ONEWEB-0632             
1 56073U 23043AD  25192.35661284  .00000130  00000+0  31173-3 0  9998
2 56073  87.9072 327.1796 0001965 104.7923 255.3425 13.15549468111610
ONEWEB-0633             
1 56074U 23043AE  25192.35026237  .00000021  00000+0  21017-4 0  9998
2 56074  87.9068 327.1477 0002280  92.2811 267.8580 13.15549193111592
